STARLINK-3173           
1 51111U 22005H   26068.80944593 -.00000069  00000+0  13789-4 0  9999
2 51111  53.2172 288.5853 0001468  91.0324 269.0836 15.08843489228891
LEMUR-2-AHMED-ASRAR     
1 60576U 24149DN  26068.73265438  .00013045  00000+0  79773-3 0  9992
2 60576  97.7021 152.9847 0001633  18.5035 341.6253 15.10376432 85541
